NIMIQ 2                 
1 27632U 02062A   26198.60272073 -.00000082  00000+0  00000+0 0  9992
2 27632   9.5144  56.5743 0005366  55.8688 290.7375  1.00271669 44480
ANIK F2                 
1 28378U 04027A   26198.60237406 -.00000061  00000+0  00000+0 0  9991
2 28378   3.3645  79.0384 0003605  33.4073 288.6936  1.00271491 41569
ANIK F1R                
1 28868U 05036A   26198.60306742 -.00000086  00000+0  00000+0 0  9993
2 28868   4.3887  76.2000 0003900  19.6897 309.3187  1.00271717 46750
ANIK F3                 
1 31102U 07009A   26198.60081406 -.00000011  00000+0  00000+0 0  9995
2 31102   1.2745  83.4850 0002546  32.4588 277.0361  1.00271804 46866
NIMIQ 4                 
1 33373U 08044A   26198.60809411 -.00000230  00000+0  00000+0 0  9994
2 33373   0.0147  43.8892 0001881  60.6554 327.7918  1.00271150 65286
TELSTAR 11N             
1 34111U 09009A   26198.40303822 -.00000260  00000+0  00000+0 0  9993
2 34111   0.0212 296.8450 0002274 170.2493 295.6572  1.00272560 46540
TERRESTAR-1             
1 35496U 09035A   26198.60237406 -.00000068  00000+0  00000+0 0  9991
2 35496   5.1944  48.7674 0002504  61.3853 291.1279  1.00272954 62431
NIMIQ 5                 
1 35873U 09050A   26198.39610484 -.00000266  00000+0  00000+0 0  9994
2 35873   0.0445 249.5097 0002639 221.6919 253.8963  1.00270278 61647
SKYTERRA 1              
1 37218U 10061A   26198.53298792 -.00000129  00000+0  00000+0 0  9991
2 37218   5.1880  50.8054 0002601  27.2324 307.8454  1.00270497 57492
TELSTAR 14R             
1 37602U 11021A   26198.53836126 -.00000105  00000+0  00000+0 0  9998
2 37602   0.0899  85.0083 0008295 290.9762  38.8505  0.98980309 56139
NIMIQ 6                 
1 38342U 12026A   26198.60618742 -.00000183  00000+0  00000+0 0  9992
2 38342   0.0648 264.8180 0002773 216.2756 301.4539  1.00271456 50711
ANIK G1                 
1 39127U 13014A   26198.60306742 -.00000083  00000+0  00000+0 0  9995
2 39127   0.0434 235.0190 0001773 250.2803 279.9131  1.00271740 48559
TELSTAR 12V             
1 41036U 15068A   26198.62126750 -.00000129  00000+0  00000+0 0  9990
2 41036   0.0170  56.1422 0002177  55.5694  32.3729  1.00271117 38934
VIASAT-2                
1 42740U 17029A   26198.39662485 -.00000275  00000+0  00000+0 0  9998
2 42740   0.0201 305.1263 0000506 229.4622 193.5095  1.00271644 33508
LEO 1 (LEO VANTAGE 1)   
1 43113U 18004C   26198.51387774  .00002237  00000+0  15896-3 0  9998
2 43113  99.2411 120.7654 0349189 346.5565  12.6510 14.68036643441930
TELSTAR 19V             
1 43562U 18059A   26198.54061462 -.00000289  00000+0  00000+0 0  9995
2 43562   0.0266 145.6010 0002692 336.7624 304.6038  1.00269947 29444
TELSTAR 18V             
1 43611U 18069A   26198.65164719 -.00000303  00000+0  00000+0 0  9999
2 43611   0.0249 291.6186 0001786 186.8674 189.5709  1.00269925 28943
AMOS-17                 
1 44479U 19050A   26198.62768087  .00000100  00000+0  00000+0 0  9992
2 44479   0.0188 351.5127 0001548 136.4067  50.5036  1.00274750 25491
